ADRAS-J                 
1 58992U 24034A   24094.48077411  .00003719  00000+0  35647-3 0  9994
2 58992  98.2062  64.1866 0042864 295.7993  63.8806 14.93128944  6711
